start=new Date('2022-06-30T00:00:00.000Z').valueOf();
sats=[{"COUNTRY_CODE":"US","OBJECT_TYPE":"PAYLOAD","LAUNCH_DATE":"2022-05-18","TIME_SYSTEM":"UTC","RA_OF_ASC_NODE":"87.5836","EPOCH":"2022-06-29T22:00:00.999936","ELEMENT_SET_NO":"999","EPHEMERIS_TYPE":"0","INCLINATION":"53.2158","RCS_SIZE":"LARGE","APOAPSIS":"351.193","MEAN_ELEMENT_THEORY":"SGP4","ARG_OF_PERICENTER":"33.9646","GP_ID":"207096301","SEMIMAJOR_AXIS":"6727.842","REV_AT_EPOCH":"700","BSTAR":"0.00001932700000","CLASSIFICATION_TYPE":"U","REF_FRAME":"TEME","MEAN_MOTION_DOT":"0.00002094","OBJECT_NAME":"STARLINK-4031","CENTER_NAME":"EARTH","FILE":"3505544","NORAD_CAT_ID":"52679","PERIOD":"91.532","MEAN_MOTION_DDOT":"0.0000000000000","ECCENTRICITY":"0.00022080","SITE":"AFETR","MEAN_MOTION":"15.73218566","PERIAPSIS":"348.222","DECAY_DATE":null,"OBJECT_ID":"2022-053Z","MEAN_ANOMALY":"64.8760","TLE_LINE1":"1 52679U 22053Z   22180.91667824  .00002094  00000-0  19327-4 0  9998","TLE_LINE2":"2 52679  53.2158  87.5836 0002208  33.9646  64.8760 15.73218566  7007"},{"SEMIMAJOR_AXIS":"6727.884","GP_ID":"207096306","ARG_OF_PERICENTER":"29.1269","REV_AT_EPOCH":"700","EPOCH":"2022-06-29T22:00:00.999936","ELEMENT_SET_NO":"999","EPHEMERIS_TYPE":"0","COUNTRY_CODE":"US","OBJECT_TYPE":"PAYLOAD","LAUNCH_DATE":"2022-05-18","TIME_SYSTEM":"UTC","RA_OF_ASC_NODE":"87.5852","MEAN_ELEMENT_THEORY":"SGP4","INCLINATION":"53.2174","RCS_SIZE":"LARGE","APOAPSIS":"351.264","SITE":"AFETR","MEAN_MOTION":"15.73203896","TLE_LINE1":"1 52680U 22053AA  22180.91667824  .00000274  00000-0  63826-5 0  9992","TLE_LINE2":"2 52680  53.2174  87.5852 0002252  29.1269  67.4451 15.73203896  7008","PERIAPSIS":"348.234","DECAY_DATE":null,"MEAN_ANOMALY":"67.4451","OBJECT_ID":"2022-053AA","MEAN_MOTION_DOT":"0.00000274","OBJECT_NAME":"STARLINK-3774","BSTAR":"0.00000638260000","CLASSIFICATION_TYPE":"U","REF_FRAME":"TEME","PERIOD":"91.533","MEAN_MOTION_DDOT":"0.0000000000000","ECCENTRICITY":"0.00022520","CENTER_NAME":"EARTH","FILE":"3505544","NORAD_CAT_ID":"52680"},{"SEMIMAJOR_AXIS":"6727.710","GP_ID":"207096310","ARG_OF_PERICENTER":"16.8937","REV_AT_EPOCH":"700","EPOCH":"2022-06-29T22:00:00.999936","EPHEMERIS_TYPE":"0","ELEMENT_SET_NO":"999","COUNTRY_CODE":"US","TIME_SYSTEM":"UTC","RA_OF_ASC_NODE":"87.5786","LAUNCH_DATE":"2022-05-18","OBJECT_TYPE":"PAYLOAD","MEAN_ELEMENT_THEORY":"SGP4","INCLINATION":"53.2160","RCS_SIZE":"LARGE","APOAPSIS":"351.340","MEAN_MOTION":"15.73264941","SITE":"AFETR","TLE_LINE1":"1 52681U 22053AB  22180.91667824 -.00045656  00000-0 -32167-3 0  9990","TLE_LINE2":"2 52681  53.2160  87.5786 0002624  16.8937  82.6553 15.73264941  7008","DECAY_DATE":null,"PERIAPSIS":"347.810","OBJECT_ID":"2022-053AB","MEAN_ANOMALY":"82.6553","MEAN_MOTION_DOT":"-0.00045656","OBJECT_NAME":"STARLINK-4068","REF_FRAME":"TEME","BSTAR":"-0.00032167000000","CLASSIFICATION_TYPE":"U","MEAN_MOTION_DDOT":"0.0000000000000","PERIOD":"91.529","ECCENTRICITY":"0.00026240","CENTER_NAME":"EARTH","FILE":"3505544","NORAD_CAT_ID":"52681"},{"EPOCH":"2022-06-29T22:00:00.999936","EPHEMERIS_TYPE":"0","ELEMENT_SET_NO":"999","COUNTRY_CODE":"US","TIME_SYSTEM":"UTC","RA_OF_ASC_NODE":"87.5827","LAUNCH_DATE":"2022-05-18","OBJECT_TYPE":"PAYLOAD","MEAN_ELEMENT_THEORY":"SGP4","RCS_SIZE":"LARGE","INCLINATION":"53.2143","APOAPSIS":"351.047","GP_ID":"207096016","SEMIMAJOR_AXIS":"6727.769","ARG_OF_PERICENTER":"27.6938","REV_AT_EPOCH":"700","MEAN_MOTION_DOT":"0.00001029","OBJECT_NAME":"STARLINK-4017","REF_FRAME":"TEME","CLASSIFICATION_TYPE":"U","BSTAR":"0.00001173700000","MEAN_MOTION_DDOT":"0.0000000000000","PERIOD":"91.531","ECCENTRICITY":"0.00021010","FILE":"3505545","CENTER_NAME":"EARTH","NORAD_CAT_ID":"52682","SITE":"AFETR","MEAN_MOTION":"15.73244407","TLE_LINE1":"1 52682U 22053AC  22180.91667824  .00001029  00000-0  11737-4 0  9996","TLE_LINE2":"2 52682  53.2143  87.5827 0002101  27.6938  70.0645 15.73244407  7005","DECAY_DATE":null,"PERIAPSIS":"348.220","OBJECT_ID":"2022-053AC","MEAN_ANOMALY":"70.0645"},{"TLE_LINE2":"2 52683  53.2159  87.5767 0002086  32.0211  68.5818 15.73198089  7000","TLE_LINE1":"1 52683U 22053AD  22180.91667824  .00001253  00000-0  13351-4 0  9990","OBJECT_ID":"2022-053AD","MEAN_ANOMALY":"68.5818","DECAY_DATE":null,"PERIAPSIS":"348.362","SITE":"AFETR","MEAN_MOTION":"15.73198089","ECCENTRICITY":"0.00020860","MEAN_MOTION_DDOT":"0.0000000000000","PERIOD":"91.533","FILE":"3505545","CENTER_NAME":"EARTH","NORAD_CAT_ID":"52683","MEAN_MOTION_DOT":"0.00001253","OBJECT_NAME":"STARLINK-4039","REF_FRAME":"TEME","BSTAR":"0.00001335100000","CLASSIFICATION_TYPE":"U","REV_AT_EPOCH":"700","SEMIMAJOR_AXIS":"6727.901","GP_ID":"207096319","ARG_OF_PERICENTER":"32.0211","MEAN_ELEMENT_THEORY":"SGP4","APOAPSIS":"351.169","INCLINATION":"53.2159","RCS_SIZE":"LARGE","EPHEMERIS_TYPE":"0","ELEMENT_SET_NO":"999","EPOCH":"2022-06-29T22:00:00.999936","TIME_SYSTEM":"UTC","RA_OF_ASC_NODE":"87.5767","LAUNCH_DATE":"2022-05-18","OBJECT_TYPE":"PAYLOAD","COUNTRY_CODE":"US"},{"GP_ID":"207096017","SEMIMAJOR_AXIS":"6727.727","ARG_OF_PERICENTER":"42.2138","REV_AT_EPOCH":"700","EPOCH":"2022-06-29T22:00:00.999936","ELEMENT_SET_NO":"999","EPHEMERIS_TYPE":"0","COUNTRY_CODE":"US","LAUNCH_DATE":"2022-05-18","OBJECT_TYPE":"PAYLOAD","RA_OF_ASC_NODE":"87.5819","TIME_SYSTEM":"UTC","MEAN_ELEMENT_THEORY":"SGP4","RCS_SIZE":"LARGE","INCLINATION":"53.2160","APOAPSIS":"351.126","SITE":"AFETR","MEAN_MOTION":"15.73258840","TLE_LINE1":"1 52684U 22053AE  22180.91667824  .00001811  00000-0  17288-4 0  9994","TLE_LINE2":"2 52684  53.2160  87.5819 0002280  42.2138  56.0256 15.73258840  7008","PERIAPSIS":"348.059","DECAY_DATE":null,"MEAN_ANOMALY":"56.0256","OBJECT_ID":"2022-053AE","MEAN_MOTION_DOT":"0.00001811","OBJECT_NAME":"STARLINK-4014","BSTAR":"0.00001728800000","CLASSIFICATION_TYPE":"U","REF_FRAME":"TEME","PERIOD":"91.530","MEAN_MOTION_DDOT":"0.0000000000000","ECCENTRICITY":"0.00022800","FILE":"3505545","CENTER_NAME":"EARTH","NORAD_CAT_ID":"52684"},{"REV_AT_EPOCH":"700","ARG_OF_PERICENTER":"31.6390","GP_ID":"207096783","SEMIMAJOR_AXIS":"6727.797","APOAPSIS":"351.005","RCS_SIZE":"MEDIUM","INCLINATION":"53.2159","MEAN_ELEMENT_THEORY":"SGP4","LAUNCH_DATE":"2022-05-18","OBJECT_TYPE":"PAYLOAD","TIME_SYSTEM":"UTC","RA_OF_ASC_NODE":"87.5747","COUNTRY_CODE":"US","ELEMENT_SET_NO":"999","EPHEMERIS_TYPE":"0","EPOCH":"2022-06-29T22:00:00.999936","OBJECT_ID":"2022-053AF","MEAN_ANOMALY":"70.8005","PERIAPSIS":"348.319","DECAY_DATE":null,"TLE_LINE2":"2 52685  53.2159  87.5747 0001996  31.6390  70.8005 15.73234493  7006","TLE_LINE1":"1 52685U 22053AF  22180.91667824 -.00002951  00000-0 -16582-4 0  9999","SITE":"AFETR","MEAN_MOTION":"15.73234493","CENTER_NAME":"EARTH","FILE":"3505583","NORAD_CAT_ID":"52685","ECCENTRICITY":"0.00019960","PERIOD":"91.531","MEAN_MOTION_DDOT":"0.0000000000000","BSTAR":"-0.00001658200000","CLASSIFICATION_TYPE":"U","REF_FRAME":"TEME","OBJECT_NAME":"STARLINK-4029","MEAN_MOTION_DOT":"-0.00002951"},{"OBJECT_NAME":"STARLINK-4005","MEAN_MOTION_DOT":"-0.00001096","CLASSIFICATION_TYPE":"U","BSTAR":"-0.00000337620000","REF_FRAME":"TEME","PERIOD":"91.532","MEAN_MOTION_DDOT":"0.0000000000000","ECCENTRICITY":"0.00022230","FILE":"3505545","NORAD_CAT_ID":"52686","CENTER_NAME":"EARTH","SITE":"AFETR","MEAN_MOTION":"15.73218717","TLE_LINE1":"1 52686U 22053AG  22180.91667824 -.00001096  00000-0 -33762-5 0  9999","TLE_LINE2":"2 52686  53.2160  87.5785 0002223  36.7707  63.2597 15.73218717  7006","PERIAPSIS":"348.211","DECAY_DATE":null,"MEAN_ANOMALY":"63.2597","OBJECT_ID":"2022-053AG","EPOCH":"2022-06-29T22:00:00.999936","ELEMENT_SET_NO":"999","EPHEMERIS_TYPE":"0","COUNTRY_CODE":"US","LAUNCH_DATE":"2022-05-18","OBJECT_TYPE":"PAYLOAD","RA_OF_ASC_NODE":"87.5785","TIME_SYSTEM":"UTC","MEAN_ELEMENT_THEORY":"SGP4","RCS_SIZE":"LARGE","INCLINATION":"53.2160","APOAPSIS":"351.202","GP_ID":"207096320","SEMIMAJOR_AXIS":"6727.842","ARG_OF_PERICENTER":"36.7707","REV_AT_EPOCH":"700"},{"PERIAPSIS":"348.385","DECAY_DATE":null,"OBJECT_ID":"2022-053AH","MEAN_ANOMALY":"76.5845","TLE_LINE1":"1 52687U 22053AH  22180.91667824 -.00000280  00000-0  24296-5 0  9995","TLE_LINE2":"2 52687  53.2161  87.5717 0002001  26.3998  76.5845 15.73210089  7001","SITE":"AFETR","MEAN_MOTION":"15.73210089","FILE":"3505545","CENTER_NAME":"EARTH","NORAD_CAT_ID":"52687","PERIOD":"91.533","MEAN_MOTION_DDOT":"0.0000000000000","ECCENTRICITY":"0.00020010","CLASSIFICATION_TYPE":"U","BSTAR":"0.00000242960000","REF_FRAME":"TEME","MEAN_MOTION_DOT":"-0.00000280","OBJECT_NAME":"STARLINK-3981","REV_AT_EPOCH":"700","ARG_OF_PERICENTER":"26.3998","GP_ID":"207096013","SEMIMAJOR_AXIS":"6727.866","INCLINATION":"53.2161","RCS_SIZE":"LARGE","APOAPSIS":"351.078","MEAN_ELEMENT_THEORY":"SGP4","COUNTRY_CODE":"US","LAUNCH_DATE":"2022-05-18","OBJECT_TYPE":"PAYLOAD","TIME_SYSTEM":"UTC","RA_OF_ASC_NODE":"87.5717","EPOCH":"2022-06-29T22:00:00.999936","ELEMENT_SET_NO":"999","EPHEMERIS_TYPE":"0"},{"MEAN_MOTION_DDOT":"0.0000000000000","PERIOD":"91.532","ECCENTRICITY":"0.00020880","FILE":"3505610","CENTER_NAME":"EARTH","NORAD_CAT_ID":"52688","MEAN_MOTION_DOT":"-0.00028487","OBJECT_NAME":"STARLINK-4032","REF_FRAME":"TEME","CLASSIFICATION_TYPE":"U","BSTAR":"-0.00019911000000","TLE_LINE1":"1 52688U 22053AJ  22180.91667824 -.00028487  00000-0 -19911-3 0  9992","TLE_LINE2":"2 52688  53.2158  87.5756 0002088  32.0042  69.4137 15.73211970  1302","DECAY_DATE":null,"PERIAPSIS":"348.321","MEAN_ANOMALY":"69.4137","OBJECT_ID":"2022-053AJ","SITE":"AFETR","MEAN_MOTION":"15.73211970","MEAN_ELEMENT_THEORY":"SGP4","RCS_SIZE":"LARGE","INCLINATION":"53.2158","APOAPSIS":"351.131","EPOCH":"2022-06-29T22:00:00.999936","EPHEMERIS_TYPE":"0","ELEMENT_SET_NO":"999","COUNTRY_CODE":"US","RA_OF_ASC_NODE":"87.5756","TIME_SYSTEM":"UTC","LAUNCH_DATE":"2022-05-18","OBJECT_TYPE":"PAYLOAD","REV_AT_EPOCH":"130","GP_ID":"207122464","SEMIMAJOR_AXIS":"6727.861","ARG_OF_PERICENTER":"32.0042"}];
